GLOBALSTAR M040         
1 25622U 99004B   24176.12474698 -.00000095  00000+0  51453-4 0  9996
2 25622  51.9926  67.3416 0001067  16.7656 132.9959 12.61976425170046
GLOBALSTAR M022         
1 25649U 99012A   24176.41782345 -.00000085  00000+0  19746-4 0  9995
2 25649  52.0006 183.4690 0002511 184.7530 325.6987 12.02484382133336
GLOBALSTAR M041         
1 25650U 99012B   24176.13492443 -.00000149  00000+0 -81571-3 0  9999
2 25650  52.0035  54.7707 0002612 354.6527   5.4281 11.96656963135414
GLOBALSTAR M046         
1 25651U 99012C   24176.33534689  .00000031  00000+0  13192-2 0  9992
2 25651  52.0028 146.8891 0002264 266.3633 241.9858 12.09392159140360
GLOBALSTAR M037         
1 25652U 99012D   24176.48973358 -.00000094  00000+0  55382-4 0  9998
2 25652  51.9975 193.3586 0001864 117.9171  35.4680 12.62409335166092
